OSCAR 7 (AO-7)          
1 07530U 74089B   26199.52413094 -.00000050  00000+0 -25006-4 0  9991
2 07530 101.9906 213.0974 0012645  72.2029  82.3408 12.53698622364449
PHASE 3B (AO-10)        
1 14129U 83058B   26198.95931596 -.00000201  00000+0  00000+0 0  9996
2 14129  25.9392 214.4954 6000614 124.1231 307.7423  2.05871393296123
UOSAT 2 (UO-11)         
1 14781U 84021B   26199.90130879  .00000593  00000+0  65892-4 0  9990
2 14781  97.8079 165.1270 0009234  81.1376 279.0887 14.90853808261858
LUSAT (LO-19)           
1 20442U 90005G   26199.85686406  .00000022  00000+0  24421-4 0  9996
2 20442  98.8846 222.5341 0012622 111.5754 248.6776 14.34131325906937
EYESAT A (AO-27)        
1 22825U 93061C   26199.74520057  .00000024  00000+0  25969-4 0  9995
2 22825  98.6865 267.1447 0008561  15.9631 344.1820 14.30949619711512
ITAMSAT (IO-26)         
1 22826U 93061D   26199.92489991  .00000028  00000+0  27568-4 0  9998
2 22826  98.6813 267.2451 0008718 358.3137   1.8015 14.31377354711853
RADIO ROSTO (RS15)      
1 23439U 94085A   26199.77798480 -.00000037  00000+0  14843-3 0  9997
2 23439  64.8145 252.1261 0157058 358.0504   1.9791 11.27583537299460
JAS-2 (FO-29)           
1 24278U 96046B   26199.51073439 -.00000035  00000+0  89785-7 0  9999
2 24278  98.5218  44.0889 0350199  15.3498 345.7949 13.53275823477400
TECHSAT 1B (GO-32)      
1 25397U 98043D   26199.88440307  .00000001  00000+0  20468-4 0  9995
2 25397  99.0087 193.4453 0002292 109.7408 250.4017 14.24433757455849
ISS (ZARYA)             
1 25544U 98067A   26199.86307315  .00004074  00000+0  81939-4 0  9998
2 25544  51.6317 143.3357 0006807 311.9483  48.0925 15.49045026576665
PCSAT (NO-44)           
1 26931U 01043C   26199.58962571  .00000019  00000+0  38009-4 0  9992
2 26931  67.0497 163.0499 0005875 266.9181  93.1249 14.31965710294949
SAUDISAT 1C (SO-50)     
1 27607U 02058C   26199.84783262  .00000381  00000+0  62972-4 0  9995
2 27607  64.5520  31.0228 0074415 256.6060 102.6744 14.83102386269151
CUTE-1 (CO-55)          
1 27844U 03031E   26199.29733931  .00000128  00000+0  74435-4 0  9993
2 27844  98.6744 207.4657 0010867  94.6885 265.5536 14.24352673196104
CUBESAT XI-IV (CO-57)   
1 27848U 03031J   26198.95002441  .00000107  00000+0  66203-4 0  9995
2 27848  98.6776 206.8106 0010632 112.1739 248.0569 14.23635431195756
MOZHAETS 4 (RS22)       
1 27939U 03042A   26200.01118752  .00000570  00000+0  95985-4 0  9995
2 27939  98.3475  25.2707 0011492 161.2237 359.8385 14.73518675220237
CUBESAT XI-V            
1 28895U 05043F   26199.38529580  .00000626  00000+0  10630-3 0  9997
2 28895  98.3020 355.6693 0015320 105.9745 254.3151 14.72706792106345
CUTE-1.7+APD II (CO-65) 
1 32785U 08021C   26199.86636480  .00002027  00000+0  12990-3 0  9998
2 32785  97.8299 181.9540 0006833 284.1756  75.8712 15.09718955989974
SEEDS II (CO-66)        
1 32791U 08021J   26199.46116429  .00009670  00000+0  29894-3 0  9999
2 32791  97.7530 198.8780 0003459 149.6253 210.5190 15.33733639992086
YUBILEINY (RS30)        
1 32953U 08025A   26199.88730465  .00000056  00000+0  33226-3 0  9994
2 32953  82.5070 335.7200 0018714 240.4084 119.5132 12.43180807823637
KKS-1 (KISEKI)          
1 33499U 09002H   26199.89744106  .00000607  00000+0  81159-4 0  9995
2 33499  98.1172 122.8420 0007727 176.7592 183.3672 14.83194078940892
SWISSCUBE               
1 35932U 09051B   26199.70847585  .00000425  00000+0  93582-4 0  9999
2 35932  98.4003 108.1426 0007982 109.6999 250.5063 14.62534308893769
BEESAT-1                
1 35933U 09051C   26199.73440735  .00000344  00000+0  78836-4 0  9994
2 35933  98.3929 107.7381 0006294 120.7003 239.4819 14.61764858893798
ITUPSAT1                
1 35935U 09051E   26199.68445378  .00000317  00000+0  75415-4 0  9998
2 35935  98.4014 106.8454 0008288 133.4128 226.7763 14.60481463893335
XIWANG-1 (HOPE-1)       
1 36122U 09072B   26199.93551301 -.00000045  00000+0 -29010-5 0  9993
2 36122 100.4042 153.2634 0007647 156.5234 203.6230 13.16439073797186
O/OREOS (USA 219)       
1 37224U 10062C   26199.87143271  .00000973  00000+0  97460-4 0  9995
2 37224  71.9700   8.5594 0014218 357.9749   2.1362 14.93859325121372
JUGNU                   
1 37839U 11058B   26199.99267451  .00000350  00000+0  43395-4 0  9990
2 37839  19.9600 115.1906 0018634  68.2086  24.8177 14.13784089763530
SRMSAT                  
1 37841U 11058D   26199.48245728  .00000322  00000+0  30967-4 0  9990
2 37841  19.9704 230.0483 0011664 187.3521 320.5069 14.11581472762240
STRAND-1                
1 39090U 13009E   26199.73373043  .00000103  00000+0  48978-4 0  9994
2 39090  98.3938  19.1941 0009578 131.5645 228.6365 14.37180014701595
ZACUBE-1 (TSHEPISOSAT)  
1 39417U 13066B   26199.86699965  .00001274  00000+0  10187-3 0  9998
2 39417  97.8003 162.3585 0044064 143.4154 217.0094 15.01338468685486
GOMX-1                  
1 39430U 13066Q   26199.84800809  .00000614  00000+0  99250-4 0  9998
2 39430  97.6463  38.3123 0127919 336.4536  23.0846 14.69547400674566
